H1 CPF 01  gfz 2021 04 13 00  6031 terrasarx 
H2 0702601  6201 31698    2021 04 13 00 59 42 2021 04 18 00 00 42   120 1 1  0 0 0
H9
10 0 59321   5742.000000  0   -2811938.671  -6266721.741    526756.594
10 0 59321   5862.000000  0   -2919626.544  -6073915.128   1422055.720
10 0 59321   5982.000000  0   -2971951.148  -5773512.379   2292312.806
10 0 59321   6102.000000  0   -2966163.932  -5371748.484   3122200.558
10 0 59321   6222.000000  0   -2900666.111  -4876685.547   3897108.774
10 0 59321   6342.000000  0   -2775065.206  -4298045.151   4603406.478
10 0 59321   6462.000000  0   -2590206.907  -3647010.014   5228683.888
10 0 59321   6582.000000  0   -2348180.797  -2935999.413   5761970.112
10 0 59321   6702.000000  0   -2052299.304  -2178424.918   6193921.569
10 0 59321   6822.000000  0   -1707051.836  -1388433.030   6516980.905
10 0 59321   6942.000000  0   -1318034.458   -580636.870   6725504.239
10 0 59321   7062.000000  0    -891857.685    230156.681   6815851.977
10 0 59321   7182.000000  0    -436034.513   1029216.901   6786448.000
10 0 59321   7302.000000  0      41151.975   1802156.417   6637806.268
10 0 59321   7422.000000  0     530799.009   2535190.144   6372522.398
10 0 59321   7542.000000  0    1023549.580   3215380.908   5995230.666
10 0 59321   7662.000000  0    1509770.002   3830869.318   5512528.362
10 0 59321   7782.000000  0    1979737.210   4371084.580   4932866.510
10 0 59321   7902.000000  0    2423833.531   4826932.288   4266407.899
10 0 59321   8022.000000  0    2832743.860   5190953.637   3524852.714
10 0 59321   8142.000000  0    3197651.166   5457454.595   2721237.600
10 0 59321   8262.000000  0    3510428.543   5622604.690   1869705.647
10 0 59321   8382.000000  0    3763818.844   5684494.580    985251.634
10 0 59321   8502.000000  0    3951598.181   5643156.464     83452.122
10 0 59321   8622.000000  0    4068721.200   5500544.088   -819817.793
10 0 59321   8742.000000  0    4111442.549   5260473.819  -1708671.911
10 0 59321   8862.000000  0    4077412.595   4928529.178  -2567500.155
10 0 59321   8982.000000  0    3965743.843   4511930.532  -3381249.199
10 0 59321   9102.000000  0    3777046.695   4019373.312  -4135689.751
10 0 59321   9222.000000  0    3513435.399   3460840.617  -4817664.063
10 0 59321   9342.000000  0    3178504.611   2847395.124  -5415311.688
10 0 59321   9462.000000  0    2777276.051   2190954.486  -5918268.267
10 0 59321   9582.000000  0    2316118.549   1504056.576  -6317835.224
10 0 59321   9702.000000  0    1802642.713    799619.012  -6607118.285
10 0 59321   9822.000000  0    1245574.281     90698.821  -6781134.559
10 0 59321   9942.000000  0     654606.549   -609745.108  -6836890.971
10 0 59321  10062.000000  0      40233.002  -1289084.339  -6773429.177
10 0 59321  10182.000000  0    -586434.196  -1935241.985  -6591838.889
10 0 59321  10302.000000  0   -1213859.845  -2536901.814  -6295242.501
10 0 59321  10422.000000  0   -1830293.308  -3083703.968  -5888747.305
10 0 59321  10542.000000  0   -2423983.416  -3566422.035  -5379366.302
10 0 59321  10662.000000  0   -2983399.534  -3977121.006  -4775909.621
10 0 59321  10782.000000  0   -3497455.891  -4309293.201  -4088843.501
10 0 59321  10902.000000  0   -3955732.612  -4557967.507  -3330118.302
10 0 59321  11022.000000  0   -4348689.974  -4719790.598  -2512968.575
10 0 59321  11142.000000  0   -4667871.069  -4793077.259  -1651686.362
10 0 59321  11262.000000  0   -4906087.400  -4777828.124   -761371.736
10 0 59321  11382.000000  0   -5057582.429  -4675713.884    142334.972
10 0 59321  11502.000000  0   -5118168.796  -4490026.045   1043534.429
10 0 59321  11622.000000  0   -5085334.509  -4225593.812   1926357.408
10 0 59321  11742.000000  0   -4958314.714  -3888669.037   2775253.684
10 0 59321  11862.000000  0   -4738127.945  -3486782.973   3575273.986
10 0 59321  11982.000000  0   -4427576.304  -3028578.959   4312339.625
10 0 59321  12102.000000  0   -4031208.590  -2523624.278   4973494.270
10 0 59321  12222.000000  0   -3555248.750  -1982207.423   5547130.734
10 0 59321  12342.000000  0   -3007493.216  -1415126.662   6023191.899
10 0 59321  12462.000000  0   -2397177.658   -833472.638   6393344.079
10 0 59321  12582.000000  0   -1734815.126   -248408.686   6651117.664
10 0 59321  12702.000000  0   -1032010.151    329043.824   6792012.479
10 0 59321  12822.000000  0    -301254.452    888211.209   6813570.789
10 0 59321  12942.000000  0     444294.807   1418964.027   6715417.724
10 0 59321  13062.000000  0    1191051.260   1911900.509   6499267.646
10 0 59321  13182.000000  0    1925246.273   2358513.189   6168895.334
10 0 59321  13302.000000  0    2633181.900   2751335.946   5730074.394
10 0 59321  13422.000000  0    3301487.679   3084071.010   5190483.225
10 0 59321  13542.000000  0    3917376.693   3351693.090   4559576.087
10 0 59321  13662.000000  0    4468892.852   3550527.523   3848422.294
10 0 59321  13782.000000  0    4945150.339   3678302.747   3069518.141
10 0 59321  13902.000000  0    5336556.384   3734174.321   2236565.709
10 0 59321  14022.000000  0    5635009.728   3718718.166   1364229.710
10 0 59321  14142.000000  0    5834072.859   3633895.683    467873.908
10 0 59321  14262.000000  0    5929111.936   3482989.417   -436717.786
10 0 59321  14382.000000  0    5917400.412   3270511.310  -1333628.018
10 0 59321  14502.000000  0    5798184.331   3002086.014  -2207094.545
10 0 59321  14622.000000  0    5572707.156   2684313.178  -3041793.763
10 0 59321  14742.000000  0    5244195.440   2324611.942  -3823113.789
10 0 59321  14862.000000  0    4817806.013   1931051.308  -4537412.139
10 0 59321  14982.000000  0    4300533.632   1512170.564  -5172251.911
10 0 59321  15102.000000  0    3701085.774   1076795.684  -5716610.577
10 0 59321  15222.000000  0    3029727.577    633855.936  -6161062.366
10 0 59321  15342.000000  0    2298098.927    192203.592  -6497930.578
10 0 59321  15462.000000  0    1519009.629   -239558.851  -6721408.209
10 0 59321  15582.000000  0     706216.414   -653242.033  -6827648.963
10 0 59321  15702.000000  0    -125818.057  -1041221.178  -6814826.328
10 0 59321  15822.000000  0    -962176.649  -1396572.298  -6683159.982
10 0 59321  15942.000000  0   -1787748.444  -1713192.480  -6434913.297
10 0 59321  16062.000000  0   -2587496.031  -1985903.100  -6074358.500
10 0 59321  16182.000000  0   -3346723.299  -2210533.432  -5607710.394
10 0 59321  16302.000000  0   -4051342.816  -2383985.278  -5043031.308
10 0 59321  16422.000000  0   -4688139.492  -2504276.541  -4390103.382
10 0 59321  16542.000000  0   -5245022.815  -2570562.260  -3660269.649
10 0 59321  16662.000000  0   -5711264.088  -2583132.889  -2866246.027
10 0 59321  16782.000000  0   -6077712.920  -2543388.820  -2021905.221
10 0 59321  16902.000000  0   -6336986.929  -2453791.853  -1142036.456
10 0 59321  17022.000000  0   -6483630.137  -2317794.064   -242084.592
10 0 59321  17142.000000  0   -6514234.777  -2139745.451    662126.080
10 0 59321  17262.000000  0   -6427523.585  -1924782.264   1554677.946
10 0 59321  17382.000000  0   -6224388.520  -1678698.984   2419850.060
10 0 59321  17502.000000  0   -5907884.619  -1407807.402   3242403.673
10 0 59321  17622.000000  0   -5483181.677  -1118786.068   4007858.169
10 0 59321  17742.000000  0   -4957471.423   -818523.900   4702751.994
10 0 59321  17862.000000  0   -4339835.568   -513962.774   5314879.213
10 0 59321  17982.000000  0   -3641080.916   -211942.879   5833502.277
10 0 59321  18102.000000  0   -2873541.361     80946.729   6249537.562
10 0 59321  18222.000000  0   -2050852.139    358508.158   6555708.768
10 0 59321  18342.000000  0   -1187702.138    615061.677   6746668.017
10 0 59321  18462.000000  0    -299568.834    845559.514   6819083.301
10 0 59321  18582.000000  0     597559.317   1045683.545   6771692.256
10 0 59321  18702.000000  0    1487469.553   1211925.685   6605322.776
10 0 59321  18822.000000  0    2354016.798   1341649.787   6322879.413
10 0 59321  18942.000000  0    3181415.930   1433133.405   5929296.264
10 0 59321  19062.000000  0    3954531.539   1485589.297   5431456.205
10 0 59321  19182.000000  0    4659157.614   1499166.136   4838075.690
10 0 59321  19302.000000  0    5282284.108   1474929.304   4159559.963
10 0 59321  19422.000000  0    5812347.754   1414821.162   3407825.167
10 0 59321  19542.000000  0    6239455.667   1321601.855   2596088.979
10 0 59321  19662.000000  0    6555579.086   1198770.408   1738638.070
10 0 59321  19782.000000  0    6754713.451   1050470.118    850572.270
10 0 59321  19902.000000  0    6832998.217    881379.060    -52468.018
10 0 59321  20022.000000  0    6788795.233    696588.760   -954585.871
10 0 59321  20142.000000  0    6622720.408    501474.029  -1839917.384
10 0 59321  20262.000000  0    6337630.061    301557.065  -2692917.872
10 0 59321  20382.000000  0    5938563.561    102370.057  -3498640.399
10 0 59321  20502.000000  0    5432643.248    -90680.368  -4243000.795
10 0 59321  20622.000000  0    4828933.654   -272443.397  -4913023.143
10 0 59321  20742.000000  0    4138266.096   -438145.561  -5497059.820
10 0 59321  20862.000000  0    3373034.775   -583501.475  -5984985.758
10 0 59321  20982.000000  0    2546966.623   -704812.137  -6368364.628
10 0 59321  21102.000000  0    1674870.146   -799047.424  -6640582.756
10 0 59321  21222.000000  0     772370.601   -863912.874  -6796952.115
10 0 59321  21342.000000  0    -144366.969   -897899.406  -6834783.274
10 0 59321  21462.000000  0   -1058921.599   -900314.481  -6753425.667
10 0 59321  21582.000000  0   -1954903.414   -871295.562  -6554278.087
10 0 59321  21702.000000  0   -2816241.233   -811804.727  -6240766.495
10 0 59321  21822.000000  0   -3627463.855   -723605.262  -5818290.651
10 0 59321  21942.000000  0   -4373975.252   -609220.385  -5294142.455
10 0 59321  22062.000000  0   -5042319.158   -471874.143  -4677390.928
10 0 59321  22182.000000  0   -5620426.152   -315416.127  -3978736.852
99
